[{"OBJECT_NAME":"STARLINK-5011","OBJECT_ID":"2022-119AR","EPOCH":"2026-03-09T21:47:57.243552","MEAN_MOTION":15.0882433,"ECCENTRICITY":0.00010101,"INCLINATION":53.2185,"RA_OF_ASC_NODE":312.7417,"ARG_OF_PERICENTER":75.2053,"MEAN_ANOMALY":284.9051,"EPHEMERIS_TYPE":0,"CLASSIFICATION_TYPE":"U","NORAD_CAT_ID":53925,"ELEMENT_SET_NO":999,"REV_AT_EPOCH":19186,"BSTAR":0.00014535131,"MEAN_MOTION_DOT":2.025e-5,"MEAN_MOTION_DDOT":0},{"OBJECT_NAME":"TITAN 34D TRANSTAGE DEB","OBJECT_ID":"1988-077S","EPOCH":"2026-03-09T01:09:21.792096","MEAN_MOTION":4.55042192,"ECCENTRICITY":0.55096831,"INCLINATION":27.4133,"RA_OF_ASC_NODE":343.6244,"ARG_OF_PERICENTER":290.4025,"MEAN_ANOMALY":20.3665,"EPHEMERIS_TYPE":0,"CLASSIFICATION_TYPE":"U","NORAD_CAT_ID":25587,"ELEMENT_SET_NO":999,"REV_AT_EPOCH":11005,"BSTAR":0.00014647197,"MEAN_MOTION_DOT":2.0e-8,"MEAN_MOTION_DDOT":0}]
